{
  "links" : {
    "next" : "https://api.nasa.gov/neo/rest/v1/feed?start_date=2010-10-16&end_date=2010-10-16&detailed=true&api_key=t0TVs3DtDT2H8Oy2Zy8m2eVrNsAVKAexjcZXUckd",
    "prev" : "https://api.nasa.gov/neo/rest/v1/feed?start_date=2010-10-14&end_date=2010-10-14&detailed=true&api_key=t0TVs3DtDT2H8Oy2Zy8m2eVrNsAVKAexjcZXUckd",
    "self" : "https://api.nasa.gov/neo/rest/v1/feed?start_date=2010-10-15&end_date=2010-10-15&detailed=true&api_key=t0TVs3DtDT2H8Oy2Zy8m2eVrNsAVKAexjcZXUckd"
  },
  "element_count" : 11,
  "near_earth_objects" : {
    "2010-10-15" : [ {
      "links" : {
        "self" : "https://api.nasa.gov/neo/rest/v1/neo/2164202?api_key=t0TVs3DtDT2H8Oy2Zy8m2eVrNsAVKAexjcZXUckd"
      },
      "neo_reference_id" : "2164202",
      "name" : "164202 (2004 EW)",
      "nasa_jpl_url" : "http://ssd.jpl.nasa.gov/sbdb.cgi?sstr=2164202",
      "absolute_magnitude_h" : 20.8,
      "estimated_diameter" : {
        "kilometers" : {
          "estimated_diameter_min" : 0.1838886721,
          "estimated_diameter_max" : 0.411187571
        },
        "meters" : {
          "estimated_diameter_min" : 183.8886720703,
          "estimated_diameter_max" : 411.1875710413
        },
        "miles" : {
          "estimated_diameter_min" : 0.1142630881,
          "estimated_diameter_max" : 0.2555000322
        },
        "feet" : {
          "estimated_diameter_min" : 603.309310875,
          "estimated_diameter_max" : 1349.040630575
        }
      },
      "is_potentially_hazardous_asteroid" : true,
      "close_approach_data" : [ {
        "close_approach_date" : "2010-10-15",
        "epoch_date_close_approach" : 1287126000000,
        "relative_velocity" : {
          "kilometers_per_second" : "9.8942295176",
          "kilometers_per_hour" : "35619.2262632824",
          "miles_per_hour" : "22132.4020078712"
        },
        "miss_distance" : {
          "astronomical" : "0.2809263739",
          "lunar" : "109.2803573608",
          "kilometers" : "42025988",
          "miles" : "26113738"
        },
        "orbiting_body" : "Earth"
      } ],
      "orbital_data" : {
        "orbit_id" : "73",
        "orbit_determination_date" : "2017-05-28 06:20:23",
        "orbit_uncertainty" : "0",
        "minimum_orbit_intersection" : ".0241636",
        "jupiter_tisserand_invariant" : "6.099",
        "epoch_osculation" : "2458000.5",
        "eccentricity" : ".2792445622055008",
        "semi_major_axis" : ".9882461226873593",
        "inclination" : "4.669720186458235",
        "ascending_node_longitude" : "342.9446180859713",
        "orbital_period" : "358.8360814924976",
        "perihelion_distance" : ".7122837668062439",
        "perihelion_argument" : "56.11674907775181",
        "aphelion_distance" : "1.264208478568475",
        "perihelion_time" : "2458009.864908087411",
        "mean_anomaly" : "350.6047159542996",
        "mean_motion" : "1.003243593851157",
        "equinox" : "J2000"
      }
    }, {
      "links" : {
        "self" : "https://api.nasa.gov/neo/rest/v1/neo/2255501?api_key=t0TVs3DtDT2H8Oy2Zy8m2eVrNsAVKAexjcZXUckd"
      },
      "neo_reference_id" : "2255501",
      "name" : "255501 (2006 BG)",
      "nasa_jpl_url" : "http://ssd.jpl.nasa.gov/sbdb.cgi?sstr=2255501",
      "absolute_magnitude_h" : 18.6,
      "estimated_diameter" : {
        "kilometers" : {
          "estimated_diameter_min" : 0.5064714588,
          "estimated_diameter_max" : 1.1325046106
        },
        "meters" : {
          "estimated_diameter_min" : 506.4714588346,
          "estimated_diameter_max" : 1132.5046106177
        },
        "miles" : {
          "estimated_diameter_min" : 0.3147066768,
          "estimated_diameter_max" : 0.7037055224
        },
        "feet" : {
          "estimated_diameter_min" : 1661.651821003,
          "estimated_diameter_max" : 3715.566426699
        }
      },
      "is_potentially_hazardous_asteroid" : false,
      "close_approach_data" : [ {
        "close_approach_date" : "2010-10-15",
        "epoch_date_close_approach" : 1287126000000,
        "relative_velocity" : {
          "kilometers_per_second" : "32.7070176024",
          "kilometers_per_hour" : "117745.2633686288",
          "miles_per_hour" : "73162.3276748016"
        },
        "miss_distance" : {
          "astronomical" : "0.2883500168",
          "lunar" : "112.1681594849",
          "kilometers" : "43136548",
          "miles" : "26803808"
        },
        "orbiting_body" : "Earth"
      } ],
      "orbital_data" : {
        "orbit_id" : "42",
        "orbit_determination_date" : "2017-04-06 09:24:45",
        "orbit_uncertainty" : "0",
        "minimum_orbit_intersection" : ".0675992",
        "jupiter_tisserand_invariant" : "3.864",
        "epoch_osculation" : "2458000.5",
        "eccentricity" : ".7318793077954446",
        "semi_major_axis" : "1.683140132723785",
        "inclination" : "4.816227466499638",
        "ascending_node_longitude" : "281.013281191678",
        "orbital_period" : "797.5884201144304",
        "perihelion_distance" : ".4512846974631685",
        "perihelion_argument" : "341.145433764441",
        "aphelion_distance" : "2.914995567984402",
        "perihelion_time" : "2457833.864084006690",
        "mean_anomaly" : "75.21288956149226",
        "mean_motion" : ".4513606152260217",
        "equinox" : "J2000"
      }
    }, {
      "links" : {
        "self" : "https://api.nasa.gov/neo/rest/v1/neo/2466507?api_key=t0TVs3DtDT2H8Oy2Zy8m2eVrNsAVKAexjcZXUckd"
      },
      "neo_reference_id" : "2466507",
      "name" : "466507 (2014 FK33)",
      "nasa_jpl_url" : "http://ssd.jpl.nasa.gov/sbdb.cgi?sstr=2466507",
      "absolute_magnitude_h" : 20.8,
      "estimated_diameter" : {
        "kilometers" : {
          "estimated_diameter_min" : 0.1838886721,
          "estimated_diameter_max" : 0.411187571
        },
        "meters" : {
          "estimated_diameter_min" : 183.8886720703,
          "estimated_diameter_max" : 411.1875710413
        },
        "miles" : {
          "estimated_diameter_min" : 0.1142630881,
          "estimated_diameter_max" : 0.2555000322
        },
        "feet" : {
          "estimated_diameter_min" : 603.309310875,
          "estimated_diameter_max" : 1349.040630575
        }
      },
      "is_potentially_hazardous_asteroid" : false,
      "close_approach_data" : [ {
        "close_approach_date" : "2010-10-15",
        "epoch_date_close_approach" : 1287126000000,
        "relative_velocity" : {
          "kilometers_per_second" : "26.1605506356",
          "kilometers_per_hour" : "94177.9822880552",
          "miles_per_hour" : "58518.5357167085"
        },
        "miss_distance" : {
          "astronomical" : "0.4728734579",
          "lunar" : "183.947769165",
          "kilometers" : "70740864",
          "miles" : "43956332"
        },
        "orbiting_body" : "Earth"
      } ],
      "orbital_data" : {
        "orbit_id" : "44",
        "orbit_determination_date" : "2017-04-06 09:19:28",
        "orbit_uncertainty" : "1",
        "minimum_orbit_intersection" : ".16299",
        "jupiter_tisserand_invariant" : "6.001",
        "epoch_osculation" : "2458000.5",
        "eccentricity" : ".5035090135043074",
        "semi_major_axis" : ".9754798354360635",
        "inclination" : "26.95838378262564",
        "ascending_node_longitude" : "15.78200253994551",
        "orbital_period" : "351.9053515630647",
        "perihelion_distance" : ".4843169458023071",
        "perihelion_argument" : "328.1726794226891",
        "aphelion_distance" : "1.46664272506982",
        "perihelion_time" : "2457934.218699728520",
        "mean_anomaly" : "67.80592563241163",
        "mean_motion" : "1.023002345377759",
        "equinox" : "J2000"
      }
    } ]
  }
}